start=new Date('2023-06-24T00:00:00.000Z').valueOf();
sats=[{"EPOCH":"2023-06-23T18:32:51.443232","CLASSIFICATION_TYPE":"U","TLE_LINE1":"1 55595U 23020AC  23174.77281763  .00000639  00000-0  62412-4 0  9991","MEAN_ELEMENT_THEORY":"SGP4","EPHEMERIS_TYPE":"0","RCS_SIZE":"LARGE","MEAN_MOTION_DOT":"0.00000639","NORAD_CAT_ID":"55595","RA_OF_ASC_NODE":"343.2621","ARG_OF_PERICENTER":"278.3788","APOAPSIS":"560.305","FILE":"3941035","TLE_LINE2":"2 55595  43.0058 343.2621 0001791 278.3788  81.6851 15.02542151 20011","MEAN_MOTION_DDOT":"0.0000000000000","OBJECT_ID":"2023-020AC","GP_ID":"234510926","LAUNCH_DATE":"2023-02-12","PERIAPSIS":"557.820","REF_FRAME":"TEME","TIME_SYSTEM":"UTC","ECCENTRICITY":"0.00017910","OBJECT_NAME":"STARLINK-5740","SITE":"AFETR","CENTER_NAME":"EARTH","DECAY_DATE":null,"COUNTRY_CODE":"US","BSTAR":"0.00006241200000","OBJECT_TYPE":"PAYLOAD","REV_AT_EPOCH":"2001","MEAN_ANOMALY":"81.6851","PERIOD":"95.838","SEMIMAJOR_AXIS":"6937.198","INCLINATION":"43.0058","ELEMENT_SET_NO":"999","MEAN_MOTION":"15.02542151"},{"GP_ID":"234510929","LAUNCH_DATE":"2023-02-12","PERIAPSIS":"558.176","REF_FRAME":"TEME","FILE":"3941035","APOAPSIS":"559.945","TLE_LINE2":"2 55596  43.0053 343.2095 0001275 271.3469  88.7227 15.02542826 20012","MEAN_MOTION_DDOT":"0.0000000000000","OBJECT_ID":"2023-020AD","NORAD_CAT_ID":"55596","MEAN_MOTION_DOT":"0.00001712","RA_OF_ASC_NODE":"343.2095","ARG_OF_PERICENTER":"271.3469","EPOCH":"2023-06-23T18:21:40.487616","CLASSIFICATION_TYPE":"U","TLE_LINE1":"1 55596U 23020AD  23174.76505194  .00001712  00000-0  14175-3 0  9993","MEAN_ELEMENT_THEORY":"SGP4","EPHEMERIS_TYPE":"0","RCS_SIZE":"LARGE","REV_AT_EPOCH":"2001","PERIOD":"95.838","MEAN_ANOMALY":"88.7227","INCLINATION":"43.0053","SEMIMAJOR_AXIS":"6937.196","ELEMENT_SET_NO":"999","MEAN_MOTION":"15.02542826","BSTAR":"0.00014175000000","OBJECT_TYPE":"PAYLOAD","CENTER_NAME":"EARTH","DECAY_DATE":null,"COUNTRY_CODE":"US","TIME_SYSTEM":"UTC","ECCENTRICITY":"0.00012750","OBJECT_NAME":"STARLINK-5729","SITE":"AFETR"},{"OBJECT_TYPE":"PAYLOAD","BSTAR":"0.00007996900000","PERIOD":"95.838","MEAN_ANOMALY":"80.8397","REV_AT_EPOCH":"2000","MEAN_MOTION":"15.02537340","SEMIMAJOR_AXIS":"6937.212","ELEMENT_SET_NO":"999","INCLINATION":"43.0050","ECCENTRICITY":"0.00018010","OBJECT_NAME":"STARLINK-5743","TIME_SYSTEM":"UTC","SITE":"AFETR","COUNTRY_CODE":"US","CENTER_NAME":"EARTH","DECAY_DATE":null,"MEAN_MOTION_DDOT":"0.0000000000000","OBJECT_ID":"2023-020AE","FILE":"3940186","APOAPSIS":"560.327","TLE_LINE2":"2 55597  43.0050 336.4616 0001801 279.2242  80.8397 15.02537340 20009","LAUNCH_DATE":"2023-02-12","PERIAPSIS":"557.828","GP_ID":"234463807","REF_FRAME":"TEME","EPOCH":"2023-06-22T18:13:30.967680","RCS_SIZE":"LARGE","CLASSIFICATION_TYPE":"U","EPHEMERIS_TYPE":"0","TLE_LINE1":"1 55597U 23020AE  23173.75938620  .00000877  00000-0  79969-4 0  9990","MEAN_ELEMENT_THEORY":"SGP4","MEAN_MOTION_DOT":"0.00000877","NORAD_CAT_ID":"55597","RA_OF_ASC_NODE":"336.4616","ARG_OF_PERICENTER":"279.2242"},{"OBJECT_ID":"2023-020AF","MEAN_MOTION_DDOT":"0.0000000000000","TLE_LINE2":"2 55598  43.0055 336.1478 0001744 267.1288  92.9355 15.02534044 20017","APOAPSIS":"560.297","FILE":"3940444","REF_FRAME":"TEME","PERIAPSIS":"557.878","LAUNCH_DATE":"2023-02-12","GP_ID":"234497373","RCS_SIZE":"LARGE","EPHEMERIS_TYPE":"0","TLE_LINE1":"1 55598U 23020AF  23173.83695369 -.00004050  00000-0 -28490-3 0  9991","MEAN_ELEMENT_THEORY":"SGP4","CLASSIFICATION_TYPE":"U","EPOCH":"2023-06-22T20:05:12.798816","ARG_OF_PERICENTER":"267.1288","RA_OF_ASC_NODE":"336.1478","NORAD_CAT_ID":"55598","MEAN_MOTION_DOT":"-0.00004050","OBJECT_TYPE":"PAYLOAD","BSTAR":"-0.00028490000000","SEMIMAJOR_AXIS":"6937.223","MEAN_MOTION":"15.02534044","ELEMENT_SET_NO":"999","INCLINATION":"43.0055","MEAN_ANOMALY":"92.9355","PERIOD":"95.838","REV_AT_EPOCH":"2001","SITE":"AFETR","OBJECT_NAME":"STARLINK-5756","ECCENTRICITY":"0.00017440","TIME_SYSTEM":"UTC","COUNTRY_CODE":"US","DECAY_DATE":null,"CENTER_NAME":"EARTH"},{"TIME_SYSTEM":"UTC","OBJECT_NAME":"STARLINK-5761","ECCENTRICITY":"0.00017920","SITE":"AFETR","DECAY_DATE":null,"CENTER_NAME":"EARTH","COUNTRY_CODE":"US","BSTAR":"0.00050310000000","OBJECT_TYPE":"PAYLOAD","REV_AT_EPOCH":"2013","PERIOD":"95.837","MEAN_ANOMALY":"87.1588","SEMIMAJOR_AXIS":"6937.186","ELEMENT_SET_NO":"999","INCLINATION":"43.0042","MEAN_MOTION":"15.02545830","EPOCH":"2023-06-23T16:44:53.496096","TLE_LINE1":"1 55599U 23020AG  23174.69784139  .00006601  00000-0  50310-3 0  9999","MEAN_ELEMENT_THEORY":"SGP4","EPHEMERIS_TYPE":"0","CLASSIFICATION_TYPE":"U","RCS_SIZE":"LARGE","MEAN_MOTION_DOT":"0.00006601","NORAD_CAT_ID":"55599","ARG_OF_PERICENTER":"272.9049","RA_OF_ASC_NODE":"331.4311","TLE_LINE2":"2 55599  43.0042 331.4311 0001792 272.9049  87.1588 15.02545830 20132","APOAPSIS":"560.294","FILE":"3941035","OBJECT_ID":"2023-020AG","MEAN_MOTION_DDOT":"0.0000000000000","GP_ID":"234511425","LAUNCH_DATE":"2023-02-12","PERIAPSIS":"557.808","REF_FRAME":"TEME"},{"OBJECT_TYPE":"PAYLOAD","BSTAR":"-0.00003995100000","ELEMENT_SET_NO":"999","SEMIMAJOR_AXIS":"6937.220","INCLINATION":"43.0052","MEAN_MOTION":"15.02534980","MEAN_ANOMALY":"81.4803","PERIOD":"95.838","REV_AT_EPOCH":"2008","SITE":"AFETR","ECCENTRICITY":"0.00018260","OBJECT_NAME":"STARLINK-5755","TIME_SYSTEM":"UTC","COUNTRY_CODE":"US","CENTER_NAME":"EARTH","DECAY_DATE":null,"MEAN_MOTION_DDOT":"0.0000000000000","OBJECT_ID":"2023-020AH","FILE":"3940720","APOAPSIS":"560.351","TLE_LINE2":"2 55600  43.0052 333.5154 0001826 278.5832  81.4803 15.02534980 20089","REF_FRAME":"TEME","PERIAPSIS":"557.818","LAUNCH_DATE":"2023-02-12","GP_ID":"234503573","RCS_SIZE":"LARGE","CLASSIFICATION_TYPE":"U","TLE_LINE1":"1 55600U 23020AH  23174.28566247 -.00000743  00000-0 -39951-4 0  9997","EPHEMERIS_TYPE":"0","MEAN_ELEMENT_THEORY":"SGP4","EPOCH":"2023-06-23T06:51:21.237408","ARG_OF_PERICENTER":"278.5832","RA_OF_ASC_NODE":"333.5154","NORAD_CAT_ID":"55600","MEAN_MOTION_DOT":"-0.00000743"},{"COUNTRY_CODE":"US","DECAY_DATE":null,"CENTER_NAME":"EARTH","OBJECT_NAME":"STARLINK-5744","ECCENTRICITY":"0.00013530","TIME_SYSTEM":"UTC","SITE":"AFETR","MEAN_ANOMALY":"85.9906","PERIOD":"95.837","REV_AT_EPOCH":"2001","INCLINATION":"43.0051","SEMIMAJOR_AXIS":"6937.184","ELEMENT_SET_NO":"999","MEAN_MOTION":"15.02546456","OBJECT_TYPE":"PAYLOAD","BSTAR":"0.00026440000000","NORAD_CAT_ID":"55601","MEAN_MOTION_DOT":"0.00003371","RA_OF_ASC_NODE":"343.1822","ARG_OF_PERICENTER":"274.0782","EPOCH":"2023-06-23T18:16:52.794624","RCS_SIZE":"LARGE","TLE_LINE1":"1 55601U 23020AJ  23174.76172216  .00003371  00000-0  26440-3 0  9996","MEAN_ELEMENT_THEORY":"SGP4","EPHEMERIS_TYPE":"0","CLASSIFICATION_TYPE":"U","PERIAPSIS":"558.111","LAUNCH_DATE":"2023-02-12","GP_ID":"234510367","REF_FRAME":"TEME","OBJECT_ID":"2023-020AJ","MEAN_MOTION_DDOT":"0.0000000000000","TLE_LINE2":"2 55601  43.0051 343.1822 0001353 274.0782  85.9906 15.02546456 20015","APOAPSIS":"559.988","FILE":"3941011"},{"RA_OF_ASC_NODE":"336.4704","ARG_OF_PERICENTER":"276.6394","NORAD_CAT_ID":"55602","MEAN_MOTION_DOT":"0.00000126","CLASSIFICATION_TYPE":"U","EPHEMERIS_TYPE":"0","TLE_LINE1":"1 55602U 23020AK  23173.76493055  .00000126  00000-0  24417-4 0  9991","MEAN_ELEMENT_THEORY":"SGP4","RCS_SIZE":"LARGE","EPOCH":"2023-06-22T18:21:29.999520","REF_FRAME":"TEME","GP_ID":"234463825","LAUNCH_DATE":"2023-02-12","PERIAPSIS":"557.849","APOAPSIS":"560.284","FILE":"3940180","TLE_LINE2":"2 55602  43.0053 336.4704 0001755 276.6394  83.4249 15.02540861 20001","MEAN_MOTION_DDOT":"0.0000000000000","OBJECT_ID":"2023-020AK","CENTER_NAME":"EARTH","DECAY_DATE":null,"COUNTRY_CODE":"US","SITE":"AFETR","TIME_SYSTEM":"UTC","ECCENTRICITY":"0.00017550","OBJECT_NAME":"STARLINK-5764","INCLINATION":"43.0053","SEMIMAJOR_AXIS":"6937.202","ELEMENT_SET_NO":"999","MEAN_MOTION":"15.02540861","REV_AT_EPOCH":"2000","PERIOD":"95.838","MEAN_ANOMALY":"83.4249","BSTAR":"0.00002441700000","OBJECT_TYPE":"PAYLOAD"},{"CENTER_NAME":"EARTH","DECAY_DATE":null,"COUNTRY_CODE":"US","TIME_SYSTEM":"UTC","ECCENTRICITY":"0.00015480","OBJECT_NAME":"STARLINK-5735","SITE":"AFETR","REV_AT_EPOCH":"2011","PERIOD":"95.838","MEAN_ANOMALY":"89.6404","SEMIMAJOR_AXIS":"6937.197","ELEMENT_SET_NO":"999","INCLINATION":"43.0023","MEAN_MOTION":"15.02542415","BSTAR":"-0.00000478640000","OBJECT_TYPE":"PAYLOAD","NORAD_CAT_ID":"55603","MEAN_MOTION_DOT":"-0.00000268","RA_OF_ASC_NODE":"332.4626","ARG_OF_PERICENTER":"270.4261","EPOCH":"2023-06-23T11:44:55.297824","CLASSIFICATION_TYPE":"U","EPHEMERIS_TYPE":"0","TLE_LINE1":"1 55603U 23020AL  23174.48952891 -.00000268  00000-0 -47864-5 0  9991","MEAN_ELEMENT_THEORY":"SGP4","RCS_SIZE":"LARGE","GP_ID":"234503895","LAUNCH_DATE":"2023-02-12","PERIAPSIS":"557.988","REF_FRAME":"TEME","FILE":"3940764","APOAPSIS":"560.136","TLE_LINE2":"2 55603  43.0023 332.4626 0001548 270.4261  89.6404 15.02542415 20113","MEAN_MOTION_DDOT":"0.0000000000000","OBJECT_ID":"2023-020AL"},{"TIME_SYSTEM":"UTC","OBJECT_NAME":"STARLINK-5748","ECCENTRICITY":"0.00013230","SITE":"AFETR","DECAY_DATE":null,"CENTER_NAME":"EARTH","COUNTRY_CODE":"US","BSTAR":"-0.00183940000000","OBJECT_TYPE":"PAYLOAD","REV_AT_EPOCH":"2024","PERIOD":"95.830","MEAN_ANOMALY":"100.2572","SEMIMAJOR_AXIS":"6936.813","MEAN_MOTION":"15.02667266","ELEMENT_SET_NO":"999","INCLINATION":"43.0037","EPOCH":"2023-06-23T07:47:29.848992","TLE_LINE1":"1 55604U 23020AM  23174.32465103 -.00025049  00000-0 -18394-2 0  9997","MEAN_ELEMENT_THEORY":"SGP4","EPHEMERIS_TYPE":"0","CLASSIFICATION_TYPE":"U","RCS_SIZE":"LARGE","MEAN_MOTION_DOT":"-0.00025049","NORAD_CAT_ID":"55604","ARG_OF_PERICENTER":"259.8122","RA_OF_ASC_NODE":"319.9434","TLE_LINE2":"2 55604  43.0037 319.9434 0001323 259.8122 100.2572 15.02667266 20246","APOAPSIS":"559.595","FILE":"3940720","OBJECT_ID":"2023-020AM","MEAN_MOTION_DDOT":"0.0000000000000","GP_ID":"234503577","PERIAPSIS":"557.760","LAUNCH_DATE":"2023-02-12","REF_FRAME":"TEME"}];
